[{"CCSDS_OMM_VERS":"2.0","COMMENT":"GENERATED VIA SPACE-TRACK.ORG API","CREATION_DATE":"2022-01-19T18:37:55","ORIGINATOR":"18 SPCS","OBJECT_NAME":"STARLINK-1098","OBJECT_ID":"2020-001D","CENTER_NAME":"EARTH","REF_FRAME":"TEME","TIME_SYSTEM":"UTC","MEAN_ELEMENT_THEORY":"SGP4","EPOCH":"2022-01-19T11:09:38.939328","MEAN_MOTION":"15.06393049","ECCENTRICITY":"0.00016460","INCLINATION":"53.0542","RA_OF_ASC_NODE":"286.2854","ARG_OF_PERICENTER":"61.0669","MEAN_ANOMALY":"299.0485","EPHEMERIS_TYPE":"0","CLASSIFICATION_TYPE":"U","NORAD_CAT_ID":"44917","ELEMENT_SET_NO":"999","REV_AT_EPOCH":"11222","BSTAR":"0.00024659000000","MEAN_MOTION_DOT":"0.00003393","MEAN_MOTION_DDOT":"0.0000000000000","SEMIMAJOR_AXIS":"6925.370","PERIOD":"95.593","APOAPSIS":"548.375","PERIAPSIS":"546.095","OBJECT_TYPE":"PAYLOAD","RCS_SIZE":"LARGE","COUNTRY_CODE":"US","LAUNCH_DATE":"2020-01-07","SITE":"AFETR","DECAY_DATE":null,"FILE":"3277432","GP_ID":"194191084","TLE_LINE0":"0 STARLINK-1098","TLE_LINE1":"1 44917U 20001D   22019.46503402  .00003393  00000-0  24659-3 0  9993","TLE_LINE2":"2 44917  53.0542 286.2854 0001646  61.0669 299.0485 15.06393049112221"},{"CCSDS_OMM_VERS":"2.0","COMMENT":"GENERATED VIA SPACE-TRACK.ORG API","CREATION_DATE":"2022-01-19T15:16:11","ORIGINATOR":"18 SPCS","OBJECT_NAME":"STARLINK-1098","OBJECT_ID":"2020-001D","CENTER_NAME":"EARTH","REF_FRAME":"TEME","TIME_SYSTEM":"UTC","MEAN_ELEMENT_THEORY":"SGP4","EPOCH":"2022-01-19T11:09:38.939328","MEAN_MOTION":"15.06393049","ECCENTRICITY":"0.00016460","INCLINATION":"53.0542","RA_OF_ASC_NODE":"286.2854","ARG_OF_PERICENTER":"61.0669","MEAN_ANOMALY":"299.0485","EPHEMERIS_TYPE":"0","CLASSIFICATION_TYPE":"U","NORAD_CAT_ID":"44917","ELEMENT_SET_NO":"999","REV_AT_EPOCH":"11222","BSTAR":"0.00024659000000","MEAN_MOTION_DOT":"0.00003393","MEAN_MOTION_DDOT":"0.0000000000000","SEMIMAJOR_AXIS":"6925.370","PERIOD":"95.593","APOAPSIS":"548.375","PERIAPSIS":"546.095","OBJECT_TYPE":"PAYLOAD","RCS_SIZE":"LARGE","COUNTRY_CODE":"US","LAUNCH_DATE":"2020-01-07","SITE":"AFETR","DECAY_DATE":null,"FILE":"3277341","GP_ID":"194169292","TLE_LINE0":"0 STARLINK-1098","TLE_LINE1":"1 44917U 20001D   22019.46503402  .00003393  00000-0  24659-3 0  9993","TLE_LINE2":"2 44917  53.0542 286.2854 0001646  61.0669 299.0485 15.06393049112221"},{"CCSDS_OMM_VERS":"2.0","COMMENT":"GENERATED VIA SPACE-TRACK.ORG API","CREATION_DATE":"2022-01-20T07:11:05","ORIGINATOR":"18 SPCS","OBJECT_NAME":"STARLINK-1098","OBJECT_ID":"2020-001D","CENTER_NAME":"EARTH","REF_FRAME":"TEME","TIME_SYSTEM":"UTC","MEAN_ELEMENT_THEORY":"SGP4","EPOCH":"2022-01-19T22:18:25.293024","MEAN_MOTION":"15.06399315","ECCENTRICITY":"0.00016520","INCLINATION":"53.0543","RA_OF_ASC_NODE":"284.2007","ARG_OF_PERICENTER":"60.7068","MEAN_ANOMALY":"299.4086","EPHEMERIS_TYPE":"0","CLASSIFICATION_TYPE":"U","NORAD_CAT_ID":"44917","ELEMENT_SET_NO":"999","REV_AT_EPOCH":"11229","BSTAR":"0.00028325000000","MEAN_MOTION_DOT":"0.00003940","MEAN_MOTION_DDOT":"0.0000000000000","SEMIMAJOR_AXIS":"6925.351","PERIOD":"95.592","APOAPSIS":"548.360","PERIAPSIS":"546.072","OBJECT_TYPE":"PAYLOAD","RCS_SIZE":"LARGE","COUNTRY_CODE":"US","LAUNCH_DATE":"2020-01-07","SITE":"AFETR","DECAY_DATE":null,"FILE":"3278166","GP_ID":"194226624","TLE_LINE0":"0 STARLINK-1098","TLE_LINE1":"1 44917U 20001D   22019.92945941  .00003940  00000-0  28325-3 0  9994","TLE_LINE2":"2 44917  53.0543 284.2007 0001652  60.7068 299.4086 15.06399315112296"},{"CCSDS_OMM_VERS":"2.0","COMMENT":"GENERATED VIA SPACE-TRACK.ORG API","CREATION_DATE":"2022-01-20T20:13:46","ORIGINATOR":"18 SPCS","OBJECT_NAME":"STARLINK-1098","OBJECT_ID":"2020-001D","CENTER_NAME":"EARTH","REF_FRAME":"TEME","TIME_SYSTEM":"UTC","MEAN_ELEMENT_THEORY":"SGP4","EPOCH":"2022-01-20T11:02:45.032352","MEAN_MOTION":"15.06393660","ECCENTRICITY":"0.00016510","INCLINATION":"53.0541","RA_OF_ASC_NODE":"281.8182","ARG_OF_PERICENTER":"59.3355","MEAN_ANOMALY":"300.7797","EPHEMERIS_TYPE":"0","CLASSIFICATION_TYPE":"U","NORAD_CAT_ID":"44917","ELEMENT_SET_NO":"999","REV_AT_EPOCH":"11237","BSTAR":"0.00016120000000","MEAN_MOTION_DOT":"0.00002120","MEAN_MOTION_DDOT":"0.0000000000000","SEMIMAJOR_AXIS":"6925.368","PERIOD":"95.593","APOAPSIS":"548.376","PERIAPSIS":"546.090","OBJECT_TYPE":"PAYLOAD","RCS_SIZE":"LARGE","COUNTRY_CODE":"US","LAUNCH_DATE":"2020-01-07","SITE":"AFETR","DECAY_DATE":null,"FILE":"3278533","GP_ID":"194258265","TLE_LINE0":"0 STARLINK-1098","TLE_LINE1":"1 44917U 20001D   22020.46024343  .00002120  00000-0  16120-3 0  9998","TLE_LINE2":"2 44917  53.0541 281.8182 0001651  59.3355 300.7797 15.06393660112374"},{"CCSDS_OMM_VERS":"2.0","COMMENT":"GENERATED VIA SPACE-TRACK.ORG API","CREATION_DATE":"2022-01-20T15:06:12","ORIGINATOR":"18 SPCS","OBJECT_NAME":"STARLINK-1098","OBJECT_ID":"2020-001D","CENTER_NAME":"EARTH","REF_FRAME":"TEME","TIME_SYSTEM":"UTC","MEAN_ELEMENT_THEORY":"SGP4","EPOCH":"2022-01-20T11:02:45.032352","MEAN_MOTION":"15.06393660","ECCENTRICITY":"0.00016510","INCLINATION":"53.0541","RA_OF_ASC_NODE":"281.8182","ARG_OF_PERICENTER":"59.3355","MEAN_ANOMALY":"300.7797","EPHEMERIS_TYPE":"0","CLASSIFICATION_TYPE":"U","NORAD_CAT_ID":"44917","ELEMENT_SET_NO":"999","REV_AT_EPOCH":"11237","BSTAR":"0.00016120000000","MEAN_MOTION_DOT":"0.00002120","MEAN_MOTION_DDOT":"0.0000000000000","SEMIMAJOR_AXIS":"6925.368","PERIOD":"95.593","APOAPSIS":"548.376","PERIAPSIS":"546.090","OBJECT_TYPE":"PAYLOAD","RCS_SIZE":"LARGE","COUNTRY_CODE":"US","LAUNCH_DATE":"2020-01-07","SITE":"AFETR","DECAY_DATE":null,"FILE":"3278395","GP_ID":"194236735","TLE_LINE0":"0 STARLINK-1098","TLE_LINE1":"1 44917U 20001D   22020.46024343  .00002120  00000-0  16120-3 0  9998","TLE_LINE2":"2 44917  53.0541 281.8182 0001651  59.3355 300.7797 15.06393660112374"},{"CCSDS_OMM_VERS":"2.0","COMMENT":"GENERATED VIA SPACE-TRACK.ORG API","CREATION_DATE":"2022-01-21T05:42:53","ORIGINATOR":"18 SPCS","OBJECT_NAME":"STARLINK-1098","OBJECT_ID":"2020-001D","CENTER_NAME":"EARTH","REF_FRAME":"TEME","TIME_SYSTEM":"UTC","MEAN_ELEMENT_THEORY":"SGP4","EPOCH":"2022-01-20T22:11:31.687584","MEAN_MOTION":"15.06393639","ECCENTRICITY":"0.00014000","INCLINATION":"53.0539","RA_OF_ASC_NODE":"279.7326","ARG_OF_PERICENTER":"62.9181","MEAN_ANOMALY":"297.1950","EPHEMERIS_TYPE":"0","CLASSIFICATION_TYPE":"U","NORAD_CAT_ID":"44917","ELEMENT_SET_NO":"999","REV_AT_EPOCH":"11244","BSTAR":"0.00008513300000","MEAN_MOTION_DOT":"0.00000987","MEAN_MOTION_DDOT":"0.0000000000000","SEMIMAJOR_AXIS":"6925.368","PERIOD":"95.593","APOAPSIS":"548.203","PERIAPSIS":"546.264","OBJECT_TYPE":"PAYLOAD","RCS_SIZE":"LARGE","COUNTRY_CODE":"US","LAUNCH_DATE":"2020-01-07","SITE":"AFETR","DECAY_DATE":null,"FILE":"3278800","GP_ID":"194290362","TLE_LINE0":"0 STARLINK-1098","TLE_LINE1":"1 44917U 20001D   22020.92467231  .00000987  00000-0  85133-4 0  9996","TLE_LINE2":"2 44917  53.0539 279.7326 0001400  62.9181 297.1950 15.06393639112440"},{"CCSDS_OMM_VERS":"2.0","COMMENT":"GENERATED VIA SPACE-TRACK.ORG API","CREATION_DATE":"2022-01-21T18:21:03","ORIGINATOR":"18 SPCS","OBJECT_NAME":"STARLINK-1098","OBJECT_ID":"2020-001D","CENTER_NAME":"EARTH","REF_FRAME":"TEME","TIME_SYSTEM":"UTC","MEAN_ELEMENT_THEORY":"SGP4","EPOCH":"2022-01-21T02:58:09.301728","MEAN_MOTION":"15.06389405","ECCENTRICITY":"0.00015090","INCLINATION":"53.0538","RA_OF_ASC_NODE":"278.8391","ARG_OF_PERICENTER":"60.0977","MEAN_ANOMALY":"300.0162","EPHEMERIS_TYPE":"0","CLASSIFICATION_TYPE":"U","NORAD_CAT_ID":"44917","ELEMENT_SET_NO":"999","REV_AT_EPOCH":"11247","BSTAR":"-0.00000843200000","MEAN_MOTION_DOT":"-0.00000407","MEAN_MOTION_DDOT":"0.0000000000000","SEMIMAJOR_AXIS":"6925.381","PERIOD":"95.593","APOAPSIS":"548.291","PERIAPSIS":"546.201","OBJECT_TYPE":"PAYLOAD","RCS_SIZE":"LARGE","COUNTRY_CODE":"US","LAUNCH_DATE":"2020-01-07","SITE":"AFETR","DECAY_DATE":null,"FILE":"3279324","GP_ID":"194327196","TLE_LINE0":"0 STARLINK-1098","TLE_LINE1":"1 44917U 20001D   22021.12371877 -.00000407  00000-0 -84320-5 0  9996","TLE_LINE2":"2 44917  53.0538 278.8391 0001509  60.0977 300.0162 15.06389405112471"},{"CCSDS_OMM_VERS":"2.0","COMMENT":"GENERATED VIA SPACE-TRACK.ORG API","CREATION_DATE":"2022-01-21T08:26:11","ORIGINATOR":"18 SPCS","OBJECT_NAME":"STARLINK-1098","OBJECT_ID":"2020-001D","CENTER_NAME":"EARTH","REF_FRAME":"TEME","TIME_SYSTEM":"UTC","MEAN_ELEMENT_THEORY":"SGP4","EPOCH":"2022-01-21T02:58:09.301728","MEAN_MOTION":"15.06389405","ECCENTRICITY":"0.00015090","INCLINATION":"53.0538","RA_OF_ASC_NODE":"278.8391","ARG_OF_PERICENTER":"60.0977","MEAN_ANOMALY":"300.0162","EPHEMERIS_TYPE":"0","CLASSIFICATION_TYPE":"U","NORAD_CAT_ID":"44917","ELEMENT_SET_NO":"999","REV_AT_EPOCH":"11247","BSTAR":"-0.00000843200000","MEAN_MOTION_DOT":"-0.00000407","MEAN_MOTION_DDOT":"0.0000000000000","SEMIMAJOR_AXIS":"6925.381","PERIOD":"95.593","APOAPSIS":"548.291","PERIAPSIS":"546.201","OBJECT_TYPE":"PAYLOAD","RCS_SIZE":"LARGE","COUNTRY_CODE":"US","LAUNCH_DATE":"2020-01-07","SITE":"AFETR","DECAY_DATE":null,"FILE":"3278988","GP_ID":"194299787","TLE_LINE0":"0 STARLINK-1098","TLE_LINE1":"1 44917U 20001D   22021.12371877 -.00000407  00000-0 -84320-5 0  9996","TLE_LINE2":"2 44917  53.0538 278.8391 0001509  60.0977 300.0162 15.06389405112471"}]